[{"OBJECT_NAME":"ORBCOMM FM105","OBJECT_ID":"2015-081C","EPOCH":"2026-04-05T13:26:59.049888","MEAN_MOTION":14.45517398,"ECCENTRICITY":0.0001923,"INCLINATION":47.0015,"RA_OF_ASC_NODE":288.361,"ARG_OF_PERICENTER":204.2688,"MEAN_ANOMALY":155.8102,"EPHEMERIS_TYPE":0,"CLASSIFICATION_TYPE":"U","NORAD_CAT_ID":41181,"ELEMENT_SET_NO":999,"REV_AT_EPOCH":54304,"BSTAR":0.00014156,"MEAN_MOTION_DOT":3.46e-6,"MEAN_MOTION_DDOT":0},{"OBJECT_NAME":"ORBCOMM FM110","OBJECT_ID":"2015-081D","EPOCH":"2026-04-05T15:26:24.485280","MEAN_MOTION":14.58794157,"ECCENTRICITY":0.000241,"INCLINATION":47.0038,"RA_OF_ASC_NODE":344.4248,"ARG_OF_PERICENTER":96.6359,"MEAN_ANOMALY":263.4801,"EPHEMERIS_TYPE":0,"CLASSIFICATION_TYPE":"U","NORAD_CAT_ID":41182,"ELEMENT_SET_NO":999,"REV_AT_EPOCH":54703,"BSTAR":0.00032139,"MEAN_MOTION_DOT":1.346e-5,"MEAN_MOTION_DDOT":0},{"OBJECT_NAME":"ORBCOMM FM118","OBJECT_ID":"2015-081E","EPOCH":"2026-04-05T09:41:48.160896","MEAN_MOTION":14.58790442,"ECCENTRICITY":0.00027158,"INCLINATION":47.0058,"RA_OF_ASC_NODE":345.8772,"ARG_OF_PERICENTER":49.5173,"MEAN_ANOMALY":310.5949,"EPHEMERIS_TYPE":0,"CLASSIFICATION_TYPE":"U","NORAD_CAT_ID":41183,"ELEMENT_SET_NO":999,"REV_AT_EPOCH":54710,"BSTAR":0.00031989743,"MEAN_MOTION_DOT":1.339e-5,"MEAN_MOTION_DDOT":0},{"OBJECT_NAME":"ORBCOMM FM112","OBJECT_ID":"2015-081F","EPOCH":"2026-04-05T19:37:42.983040","MEAN_MOTION":14.5878754,"ECCENTRICITY":0.0002447,"INCLINATION":46.9985,"RA_OF_ASC_NODE":252.4079,"ARG_OF_PERICENTER":233.328,"MEAN_ANOMALY":126.7381,"EPHEMERIS_TYPE":0,"CLASSIFICATION_TYPE":"U","NORAD_CAT_ID":41184,"ELEMENT_SET_NO":999,"REV_AT_EPOCH":54838,"BSTAR":0.00023677,"MEAN_MOTION_DOT":9.46e-6,"MEAN_MOTION_DDOT":0},{"OBJECT_NAME":"ORBCOMM FM113","OBJECT_ID":"2015-081G","EPOCH":"2026-04-05T20:43:39.227808","MEAN_MOTION":14.58779379,"ECCENTRICITY":0.0002103,"INCLINATION":46.9999,"RA_OF_ASC_NODE":252.5641,"ARG_OF_PERICENTER":241.3673,"MEAN_ANOMALY":118.7002,"EPHEMERIS_TYPE":0,"CLASSIFICATION_TYPE":"U","NORAD_CAT_ID":41185,"ELEMENT_SET_NO":999,"REV_AT_EPOCH":54837,"BSTAR":0.00021061,"MEAN_MOTION_DOT":8.23e-6,"MEAN_MOTION_DDOT":0},{"OBJECT_NAME":"ORBCOMM FM115","OBJECT_ID":"2015-081H","EPOCH":"2026-04-05T05:49:03.077472","MEAN_MOTION":14.63173049,"ECCENTRICITY":0.0001734,"INCLINATION":46.9977,"RA_OF_ASC_NODE":89.8247,"ARG_OF_PERICENTER":304.4076,"MEAN_ANOMALY":55.6647,"EPHEMERIS_TYPE":0,"CLASSIFICATION_TYPE":"U","NORAD_CAT_ID":41186,"ELEMENT_SET_NO":999,"REV_AT_EPOCH":55053,"BSTAR":0.00021936,"MEAN_MOTION_DOT":9.63e-6,"MEAN_MOTION_DDOT":0},{"OBJECT_NAME":"ORBCOMM FM108","OBJECT_ID":"2015-081J","EPOCH":"2026-04-05T14:54:03.817728","MEAN_MOTION":14.58794712,"ECCENTRICITY":0.0003491,"INCLINATION":47.0041,"RA_OF_ASC_NODE":165.2626,"ARG_OF_PERICENTER":234.1961,"MEAN_ANOMALY":125.8601,"EPHEMERIS_TYPE":0,"CLASSIFICATION_TYPE":"U","NORAD_CAT_ID":41187,"ELEMENT_SET_NO":999,"REV_AT_EPOCH":54948,"BSTAR":0.00028641,"MEAN_MOTION_DOT":1.181e-5,"MEAN_MOTION_DDOT":0},{"OBJECT_NAME":"ORBCOMM FM117","OBJECT_ID":"2015-081K","EPOCH":"2026-04-05T10:46:58.845216","MEAN_MOTION":14.58789528,"ECCENTRICITY":0.0003949,"INCLINATION":47.0005,"RA_OF_ASC_NODE":164.7299,"ARG_OF_PERICENTER":237.2423,"MEAN_ANOMALY":122.8082,"EPHEMERIS_TYPE":0,"CLASSIFICATION_TYPE":"U","NORAD_CAT_ID":41188,"ELEMENT_SET_NO":999,"REV_AT_EPOCH":54950,"BSTAR":0.00027405633,"MEAN_MOTION_DOT":1.122e-5,"MEAN_MOTION_DDOT":0},{"OBJECT_NAME":"ORBCOMM FM116","OBJECT_ID":"2015-081L","EPOCH":"2026-04-05T11:58:03.708192","MEAN_MOTION":14.5878327,"ECCENTRICITY":0.00011301,"INCLINATION":47.0017,"RA_OF_ASC_NODE":254.2842,"ARG_OF_PERICENTER":102.8513,"MEAN_ANOMALY":257.2499,"EPHEMERIS_TYPE":0,"CLASSIFICATION_TYPE":"U","NORAD_CAT_ID":41189,"ELEMENT_SET_NO":999,"REV_AT_EPOCH":54832,"BSTAR":0.00024065378,"MEAN_MOTION_DOT":9.65e-6,"MEAN_MOTION_DDOT":0}]
